[{"OBJECT_NAME":"NOVASAR 1","OBJECT_ID":"2018-071B","EPOCH":"2026-03-09T22:37:23.630304","MEAN_MOTION":14.96279869,"ECCENTRICITY":0.00025467,"INCLINATION":97.522,"RA_OF_ASC_NODE":305.2476,"ARG_OF_PERICENTER":88.2237,"MEAN_ANOMALY":271.9277,"EPHEMERIS_TYPE":0,"CLASSIFICATION_TYPE":"U","NORAD_CAT_ID":43619,"ELEMENT_SET_NO":999,"REV_AT_EPOCH":40809,"BSTAR":0.00014385278,"MEAN_MOTION_DOT":1.57e-5,"MEAN_MOTION_DDOT":0},{"OBJECT_NAME":"STARLINK-36280","OBJECT_ID":"2025-304V","EPOCH":"2026-03-09T16:12:01.802304","MEAN_MOTION":14.98313787,"ECCENTRICITY":0.0003112,"INCLINATION":70.0027,"RA_OF_ASC_NODE":174.4498,"ARG_OF_PERICENTER":275.5816,"MEAN_ANOMALY":84.4988,"EPHEMERIS_TYPE":0,"CLASSIFICATION_TYPE":"U","NORAD_CAT_ID":67211,"ELEMENT_SET_NO":999,"REV_AT_EPOCH":1388,"BSTAR":-0.0005522368,"MEAN_MOTION_DOT":-6.673e-5,"MEAN_MOTION_DDOT":0}]
